39074,GLOBALSTAR M094,2013,114.08,700.0,+,51.99,Active,1,LEO,Kazakhstan,Globalstar,Commercial,Communications,Soyuz,1 39074U 13005C   24297.41646670 -.00000087  00000+0  96238-4 0  9997,2 39074  51.9948 183.0141 0001148  83.8699 276.2298 12.62264112542493,12.62264112,0.0001148,LEO
39075,GLOBALSTAR M096,2013,114.08,700.0,+,52.01,Active,1,LEO,Kazakhstan,Globalstar,Commercial,Communications,Soyuz,1 39075U 13005D   24296.79615015 -.00000065  00000+0  21563-3 0  9991,2 39075  52.0066 233.2305 0000990  71.0143 289.0831 12.62271932541317,12.62271932,9.9e-05,LEO
39076,GLOBALSTAR M078,2013,114.08,700.0,+,51.99,Active,1,LEO,Kazakhstan,Globalstar,Commercial,Communications,Soyuz,1 39076U 13005E   24296.61103563 -.00000079  00000+0  13882-3 0  9993,2 39076  51.9883 318.6265 0001168  32.1352 327.9585 12.62276489539917,12.62276489,0.0001168,LEO
39077,GLOBALSTAR M095,2013,114.08,700.0,+,51.98,Active,1,LEO,Kazakhstan,Globalstar,Commercial,Communications,Soyuz,1 39077U 13005F   24297.35052384 -.00000077  00000+0  14732-3 0  9993,2 39077  51.9806 313.6917 0000956  62.3926 297.7038 12.62266654540224,12.62266654,9.56e-05,LEO
52888,GLOBALSTAR M087,2022,107.66,715.0,+,51.97,Active,1,LEO,USA,USA,Commercial,Communications,Falcon,1 52888U 22064A   24297.48187755 -.00000099  00000+0  55397-4 0  9995,2 52888  51.9737 121.0168 0008921 335.2644  24.7827 13.37590775114699,13.37590775,0.0008921,LEO
